ONEWEB-0720             
1 55835U 23029AR  25213.47991596  .00000103  00000+0  22397-3 0  9994
2 55835  87.9234   8.5457 0002108  84.2397 275.8976 13.19723700116672
ONEWEB-0537             
1 56046U 23043A   25213.62736632 -.00000038  00000+0 -13287-3 0  9997
2 56046  87.9054 292.4585 0001787 100.3051 259.8281 13.16595843117823
ONEWEB-0538             
1 56047U 23043B   25213.54504902 -.00000019  00000+0 -82451-4 0  9991
2 56047  87.9046 292.4907 0001834  91.8938 268.2403 13.16593494116913
ONEWEB-0546             
1 56048U 23043C   25213.30438776  .00000012  00000+0 -31896-5 0  9991
2 56048  87.9057 292.5163 0001472 115.3189 244.8095 13.16593354116876
ONEWEB-0547             
1 56049U 23043D   25213.28074413  .00000104  00000+0  22110-3 0  9991
2 56049  87.9269 307.7987 0001974  93.0373 267.0987 13.21824758115966
ONEWEB-0548             
1 56050U 23043E   25213.48169251  .00001202  00000+0  31109-2 0  9997
2 56050  87.9038 292.5109 0002545 104.5823 255.5590 13.16606582116894
ONEWEB-0549             
1 56051U 23043F   25213.34775972  .00000088  00000+0  18221-3 0  9998
2 56051  87.9270 307.7995 0001959  91.1695 268.9663 13.21824532115971
ONEWEB-0550             
1 56052U 23043G   25213.25946851  .00000058  00000+0  10870-3 0  9994
2 56052  87.9272 307.8109 0002062 103.9327 256.2037 13.21826311115963
ONEWEB-0551             
1 56053U 23043H   25213.33416491 -.00000053  00000+0 -17388-3 0  9994
2 56053  87.9081 323.0252 0002002  92.6293 267.5067 13.15547824114342
ONEWEB-0552             
1 56054U 23043J   25213.25315764  .00000027  00000+0  32734-4 0  9999
2 56054  87.9272 307.8211 0002199  93.6668 266.4717 13.21826887115969
ONEWEB-0553             
1 56055U 23043K   25213.23472066  .00000006  00000+0 -17401-4 0  9999
2 56055  87.9047 292.5506 0001828 109.1538 250.9791 13.16595966116870
ONEWEB-0554             
1 56056U 23043L   25213.52605238  .00000082  00000+0  18024-3 0  9995
2 56056  87.9042 292.5195 0002228 103.5790 256.5589 13.16595537116896
ONEWEB-0555             
1 56057U 23043M   25213.26006276 -.00000047  00000+0 -15696-3 0  9999
2 56057  87.9045 292.5401 0001733 114.6124 245.5187 13.16593287116863
ONEWEB-0557             
1 56058U 23043N   25213.50229800  .00000044  00000+0  81769-4 0  9997
2 56058  87.9040 292.5127 0002707 127.0214 233.1165 13.16594243116899
ONEWEB-0558             
1 56059U 23043P   25213.32255350 -.00000010  00000+0 -55806-4 0  9995
2 56059  87.9270 307.8032 0001943  86.8210 273.3146 13.21825745115983
ONEWEB-0559             
1 56060U 23043Q   25213.31150505  .00000029  00000+0  39136-4 0  9998
2 56060  87.9272 307.7973 0002281  91.9865 268.1531 13.21826854115992
ONEWEB-0566             
1 56061U 23043R   25213.30519722  .00000100  00000+0  20994-3 0  9999
2 56061  87.9271 307.7965 0002113  90.3856 269.7520 13.21827364115970
