[{"OBJECT_NAME":"ONEWEB-0720","OBJECT_ID":"2023-029AR","EPOCH":"2025-08-01T11:31:04.738944","MEAN_MOTION":13.197237,"ECCENTRICITY":0.0002108,"INCLINATION":87.9234,"RA_OF_ASC_NODE":8.5457,"ARG_OF_PERICENTER":84.2397,"MEAN_ANOMALY":275.8976,"EPHEMERIS_TYPE":0,"CLASSIFICATION_TYPE":"U","NORAD_CAT_ID":55835,"ELEMENT_SET_NO":999,"REV_AT_EPOCH":11667,"BSTAR":0.00022397,"MEAN_MOTION_DOT":1.03e-6,"MEAN_MOTION_DDOT":0},{"OBJECT_NAME":"ONEWEB-0537","OBJECT_ID":"2023-043A","EPOCH":"2025-08-01T15:03:24.450048","MEAN_MOTION":13.16595843,"ECCENTRICITY":0.0001787,"INCLINATION":87.9054,"RA_OF_ASC_NODE":292.4585,"ARG_OF_PERICENTER":100.3051,"MEAN_ANOMALY":259.8281,"EPHEMERIS_TYPE":0,"CLASSIFICATION_TYPE":"U","NORAD_CAT_ID":56046,"ELEMENT_SET_NO":999,"REV_AT_EPOCH":11782,"BSTAR":-0.00013287,"MEAN_MOTION_DOT":-3.8e-7,"MEAN_MOTION_DDOT":0},{"OBJECT_NAME":"ONEWEB-0538","OBJECT_ID":"2023-043B","EPOCH":"2025-08-01T13:04:52.235328","MEAN_MOTION":13.16593494,"ECCENTRICITY":0.0001834,"INCLINATION":87.9046,"RA_OF_ASC_NODE":292.4907,"ARG_OF_PERICENTER":91.8938,"MEAN_ANOMALY":268.2403,"EPHEMERIS_TYPE":0,"CLASSIFICATION_TYPE":"U","NORAD_CAT_ID":56047,"ELEMENT_SET_NO":999,"REV_AT_EPOCH":11691,"BSTAR":-8.2451e-5,"MEAN_MOTION_DOT":-1.9e-7,"MEAN_MOTION_DDOT":0},{"OBJECT_NAME":"ONEWEB-0546","OBJECT_ID":"2023-043C","EPOCH":"2025-08-01T07:18:19.102464","MEAN_MOTION":13.16593354,"ECCENTRICITY":0.0001472,"INCLINATION":87.9057,"RA_OF_ASC_NODE":292.5163,"ARG_OF_PERICENTER":115.3189,"MEAN_ANOMALY":244.8095,"EPHEMERIS_TYPE":0,"CLASSIFICATION_TYPE":"U","NORAD_CAT_ID":56048,"ELEMENT_SET_NO":999,"REV_AT_EPOCH":11687,"BSTAR":-3.1896e-6,"MEAN_MOTION_DOT":1.2e-7,"MEAN_MOTION_DDOT":0},{"OBJECT_NAME":"ONEWEB-0547","OBJECT_ID":"2023-043D","EPOCH":"2025-08-01T06:44:16.292832","MEAN_MOTION":13.21824758,"ECCENTRICITY":0.0001974,"INCLINATION":87.9269,"RA_OF_ASC_NODE":307.7987,"ARG_OF_PERICENTER":93.0373,"MEAN_ANOMALY":267.0987,"EPHEMERIS_TYPE":0,"CLASSIFICATION_TYPE":"U","NORAD_CAT_ID":56049,"ELEMENT_SET_NO":999,"REV_AT_EPOCH":11596,"BSTAR":0.0002211,"MEAN_MOTION_DOT":1.04e-6,"MEAN_MOTION_DDOT":0},{"OBJECT_NAME":"ONEWEB-0548","OBJECT_ID":"2023-043E","EPOCH":"2025-08-01T11:33:38.232864","MEAN_MOTION":13.16606582,"ECCENTRICITY":0.0002545,"INCLINATION":87.9038,"RA_OF_ASC_NODE":292.5109,"ARG_OF_PERICENTER":104.5823,"MEAN_ANOMALY":255.559,"EPHEMERIS_TYPE":0,"CLASSIFICATION_TYPE":"U","NORAD_CAT_ID":56050,"ELEMENT_SET_NO":999,"REV_AT_EPOCH":11689,"BSTAR":0.0031109,"MEAN_MOTION_DOT":1.202e-5,"MEAN_MOTION_DDOT":0},{"OBJECT_NAME":"ONEWEB-0549","OBJECT_ID":"2023-043F","EPOCH":"2025-08-01T08:20:46.439808","MEAN_MOTION":13.21824532,"ECCENTRICITY":0.0001959,"INCLINATION":87.927,"RA_OF_ASC_NODE":307.7995,"ARG_OF_PERICENTER":91.1695,"MEAN_ANOMALY":268.9663,"EPHEMERIS_TYPE":0,"CLASSIFICATION_TYPE":"U","NORAD_CAT_ID":56051,"ELEMENT_SET_NO":999,"REV_AT_EPOCH":11597,"BSTAR":0.00018221,"MEAN_MOTION_DOT":8.8e-7,"MEAN_MOTION_DDOT":0},{"OBJECT_NAME":"ONEWEB-0550","OBJECT_ID":"2023-043G","EPOCH":"2025-08-01T06:13:38.079264","MEAN_MOTION":13.21826311,"ECCENTRICITY":0.0002062,"INCLINATION":87.9272,"RA_OF_ASC_NODE":307.8109,"ARG_OF_PERICENTER":103.9327,"MEAN_ANOMALY":256.2037,"EPHEMERIS_TYPE":0,"CLASSIFICATION_TYPE":"U","NORAD_CAT_ID":56052,"ELEMENT_SET_NO":999,"REV_AT_EPOCH":11596,"BSTAR":0.0001087,"MEAN_MOTION_DOT":5.8e-7,"MEAN_MOTION_DDOT":0},{"OBJECT_NAME":"ONEWEB-0551","OBJECT_ID":"2023-043H","EPOCH":"2025-08-01T08:01:11.848224","MEAN_MOTION":13.15547824,"ECCENTRICITY":0.0002002,"INCLINATION":87.9081,"RA_OF_ASC_NODE":323.0252,"ARG_OF_PERICENTER":92.6293,"MEAN_ANOMALY":267.5067,"EPHEMERIS_TYPE":0,"CLASSIFICATION_TYPE":"U","NORAD_CAT_ID":56053,"ELEMENT_SET_NO":999,"REV_AT_EPOCH":11434,"BSTAR":-0.00017388,"MEAN_MOTION_DOT":-5.3e-7,"MEAN_MOTION_DDOT":0},{"OBJECT_NAME":"ONEWEB-0552","OBJECT_ID":"2023-043J","EPOCH":"2025-08-01T06:04:32.820096","MEAN_MOTION":13.21826887,"ECCENTRICITY":0.0002199,"INCLINATION":87.9272,"RA_OF_ASC_NODE":307.8211,"ARG_OF_PERICENTER":93.6668,"MEAN_ANOMALY":266.4717,"EPHEMERIS_TYPE":0,"CLASSIFICATION_TYPE":"U","NORAD_CAT_ID":56054,"ELEMENT_SET_NO":999,"REV_AT_EPOCH":11596,"BSTAR":3.2734e-5,"MEAN_MOTION_DOT":2.7e-7,"MEAN_MOTION_DDOT":0},{"OBJECT_NAME":"ONEWEB-0553","OBJECT_ID":"2023-043K","EPOCH":"2025-08-01T05:37:59.865024","MEAN_MOTION":13.16595966,"ECCENTRICITY":0.0001828,"INCLINATION":87.9047,"RA_OF_ASC_NODE":292.5506,"ARG_OF_PERICENTER":109.1538,"MEAN_ANOMALY":250.9791,"EPHEMERIS_TYPE":0,"CLASSIFICATION_TYPE":"U","NORAD_CAT_ID":56055,"ELEMENT_SET_NO":999,"REV_AT_EPOCH":11687,"BSTAR":-1.7401e-5,"MEAN_MOTION_DOT":6.0e-8,"MEAN_MOTION_DDOT":0},{"OBJECT_NAME":"ONEWEB-0554","OBJECT_ID":"2023-043L","EPOCH":"2025-08-01T12:37:30.925632","MEAN_MOTION":13.16595537,"ECCENTRICITY":0.0002228,"INCLINATION":87.9042,"RA_OF_ASC_NODE":292.5195,"ARG_OF_PERICENTER":103.579,"MEAN_ANOMALY":256.5589,"EPHEMERIS_TYPE":0,"CLASSIFICATION_TYPE":"U","NORAD_CAT_ID":56056,"ELEMENT_SET_NO":999,"REV_AT_EPOCH":11689,"BSTAR":0.00018024,"MEAN_MOTION_DOT":8.2e-7,"MEAN_MOTION_DDOT":0},{"OBJECT_NAME":"ONEWEB-0555","OBJECT_ID":"2023-043M","EPOCH":"2025-08-01T06:14:29.422464","MEAN_MOTION":13.16593287,"ECCENTRICITY":0.0001733,"INCLINATION":87.9045,"RA_OF_ASC_NODE":292.5401,"ARG_OF_PERICENTER":114.6124,"MEAN_ANOMALY":245.5187,"EPHEMERIS_TYPE":0,"CLASSIFICATION_TYPE":"U","NORAD_CAT_ID":56057,"ELEMENT_SET_NO":999,"REV_AT_EPOCH":11686,"BSTAR":-0.00015696,"MEAN_MOTION_DOT":-4.7e-7,"MEAN_MOTION_DDOT":0},{"OBJECT_NAME":"ONEWEB-0557","OBJECT_ID":"2023-043N","EPOCH":"2025-08-01T12:03:18.547200","MEAN_MOTION":13.16594243,"ECCENTRICITY":0.0002707,"INCLINATION":87.904,"RA_OF_ASC_NODE":292.5127,"ARG_OF_PERICENTER":127.0214,"MEAN_ANOMALY":233.1165,"EPHEMERIS_TYPE":0,"CLASSIFICATION_TYPE":"U","NORAD_CAT_ID":56058,"ELEMENT_SET_NO":999,"REV_AT_EPOCH":11689,"BSTAR":8.1769e-5,"MEAN_MOTION_DOT":4.4e-7,"MEAN_MOTION_DDOT":0},{"OBJECT_NAME":"ONEWEB-0558","OBJECT_ID":"2023-043P","EPOCH":"2025-08-01T07:44:28.622400","MEAN_MOTION":13.21825745,"ECCENTRICITY":0.0001943,"INCLINATION":87.927,"RA_OF_ASC_NODE":307.8032,"ARG_OF_PERICENTER":86.821,"MEAN_ANOMALY":273.3146,"EPHEMERIS_TYPE":0,"CLASSIFICATION_TYPE":"U","NORAD_CAT_ID":56059,"ELEMENT_SET_NO":999,"REV_AT_EPOCH":11598,"BSTAR":-5.5806e-5,"MEAN_MOTION_DOT":-1.0e-7,"MEAN_MOTION_DDOT":0},{"OBJECT_NAME":"ONEWEB-0559","OBJECT_ID":"2023-043Q","EPOCH":"2025-08-01T07:28:34.036320","MEAN_MOTION":13.21826854,"ECCENTRICITY":0.0002281,"INCLINATION":87.9272,"RA_OF_ASC_NODE":307.7973,"ARG_OF_PERICENTER":91.9865,"MEAN_ANOMALY":268.1531,"EPHEMERIS_TYPE":0,"CLASSIFICATION_TYPE":"U","NORAD_CAT_ID":56060,"ELEMENT_SET_NO":999,"REV_AT_EPOCH":11599,"BSTAR":3.9136e-5,"MEAN_MOTION_DOT":2.9e-7,"MEAN_MOTION_DDOT":0},{"OBJECT_NAME":"ONEWEB-0566","OBJECT_ID":"2023-043R","EPOCH":"2025-08-01T07:19:29.039808","MEAN_MOTION":13.21827364,"ECCENTRICITY":0.0002113,"INCLINATION":87.9271,"RA_OF_ASC_NODE":307.7965,"ARG_OF_PERICENTER":90.3856,"MEAN_ANOMALY":269.752,"EPHEMERIS_TYPE":0,"CLASSIFICATION_TYPE":"U","NORAD_CAT_ID":56061,"ELEMENT_SET_NO":999,"REV_AT_EPOCH":11597,"BSTAR":0.00020994,"MEAN_MOTION_DOT":1.0e-6,"MEAN_MOTION_DDOT":0}]
